{
  "type": "FeatureCollection",
  "features": [
    {
      "type": "Feature",
      "properties": {
        "panchayat_id": 1,
        "name": "Dharampuri",
        "block": "Sanwer",
        "district": "Indore",
        "rainfall_risk": "Moderate",
        "rainfall_expected_mm": 18.5,
        "avg_temp": 28.5,
        "humidity": 72,
        "color": "#FBBF24"
      },
      "geometry": {
        "type": "Polygon",
        "coordinates": [
          [
            [75.815, 22.965],
            [75.838, 22.968],
            [75.842, 22.985],
            [75.819, 22.982],
            [75.815, 22.965]
          ]
        ]
      }
    },
    {
      "type": "Feature",
      "properties": {
        "panchayat_id": 2,
        "name": "Kshipra",
        "block": "Sanwer",
        "district": "Indore",
        "rainfall_risk": "High",
        "rainfall_expected_mm": 38.0,
        "avg_temp": 27.2,
        "humidity": 82,
        "color": "#EF4444"
      },
      "geometry": {
        "type": "Polygon",
        "coordinates": [
          [
            [75.850, 22.980],
            [75.878, 22.982],
            [75.882, 23.005],
            [75.853, 23.001],
            [75.850, 22.980]
          ]
        ]
      }
    },
    {
      "type": "Feature",
      "properties": {
        "panchayat_id": 3,
        "name": "Ajnod",
        "block": "Sanwer",
        "district": "Indore",
        "rainfall_risk": "Normal",
        "rainfall_expected_mm": 6.2,
        "avg_temp": 29.8,
        "humidity": 64,
        "color": "#4CAF50"
      },
      "geometry": {
        "type": "Polygon",
        "coordinates": [
          [
            [75.790, 22.935],
            [75.812, 22.938],
            [75.815, 22.955],
            [75.792, 22.952],
            [75.790, 22.935]
          ]
        ]
      }
    }
  ]
}
